{
    "links": {
        "self": "http://www.neowsapp.com/rest/v1/neo/3989183?api_key=iIulBulltgU6a56xZRHN4H3l9WmuAYTsLGpBGhQ2"
    },
    "id": "3989183",
    "neo_reference_id": "3989183",
    "name": "(2020 BD8)",
    "designation": "2020 BD8",
    "nasa_jpl_url": "http://ssd.jpl.nasa.gov/sbdb.cgi?sstr=3989183",
    "absolute_magnitude_h": 20.846,
    "estimated_diameter": {
        "kilometers": {
            "estimated_diameter_min": 0.1800341848,
            "estimated_diameter_max": 0.4025686755
        },
        "meters": {
            "estimated_diameter_min": 180.0341848235,
            "estimated_diameter_max": 402.5686755391
        },
        "miles": {
            "estimated_diameter_min": 0.1118680215,
            "estimated_diameter_max": 0.2501445005
        },
        "feet": {
            "estimated_diameter_min": 590.6633549363,
            "estimated_diameter_max": 1320.7634134556
        }
    },
    "is_potentially_hazardous_asteroid": false,
    "close_approach_data": [
        {
            "close_approach_date": "2020-01-03",
            "close_approach_date_full": "2020-Jan-03 09:11",
            "epoch_date_close_approach": 1578042660000,
            "relative_velocity": {
                "kilometers_per_second": "28.3289968243",
                "kilometers_per_hour": "101984.3885673511",
                "miles_per_hour": "63369.1329961966"
            },
            "miss_distance": {
                "astronomical": "0.3713311346",
                "lunar": "144.4478113594",
                "kilometers": "55550346.800843302",
                "miles": "34517384.9096374876"
            },
            "orbiting_body": "Earth"
        }
    ],
    "orbital_data": {
        "orbit_id": "4",
        "orbit_determination_date": "2020-01-28 05:44:38",
        "first_observation_date": "2020-01-23",
        "last_observation_date": "2020-01-28",
        "data_arc_in_days": 5,
        "observations_used": 37,
        "orbit_uncertainty": "9",
        "minimum_orbit_intersection": ".0658328",
        "jupiter_tisserand_invariant": "3.229",
        "epoch_osculation": "2458874.5",
        "eccentricity": ".6803935998168954",
        "semi_major_axis": "2.305581007380121",
        "inclination": "4.97474920372227",
        "ascending_node_longitude": "350.5839189028598",
        "orbital_period": "1278.701002707356",
        "perihelion_distance": ".7368784460992962",
        "perihelion_argument": "22.56133717577211",
        "aphelion_distance": "3.874283568660945",
        "perihelion_time": "2458810.566814471676",
        "mean_anomaly": "17.99947504652429",
        "mean_motion": ".2815357141644393",
        "equinox": "J2000",
        "orbit_class": {
            "orbit_class_type": "APO",
            "orbit_class_description": "Near-Earth asteroid orbits which cross the Earth’s orbit similar to that of 1862 Apollo",
            "orbit_class_range": "a (semi-major axis) > 1.0 AU; q (perihelion) < 1.017 AU"
        }
    },
    "is_sentry_object": false
}